{
  "type": "FeatureCollection",
  "features": [
    {
      "type": "Feature",
      "properties": {
        "norad_id": 41019,
        "name": "GPS BIIF-11 (PRN 10)",
        "group": "gnss",
        "lat": -49.47460580869503,
        "lon": -11.520581088000561,
        "alt_km": 20060.930790144193,
        "timestamp": "2025-12-04T17:48:40.409115+00:00",
        "meta_object_name": "GPS BIIF-11 (PRN 10)",
        "meta_object_id": "2015-062A",
        "meta_epoch": "2025-12-02T20:07:20.287200",
        "meta_mean_motion": 2.00566746,
        "meta_eccentricity": 0.01105435,
        "meta_inclination": 56.8251,
        "meta_ra_of_asc_node": 38.3854,
        "meta_arg_of_pericenter": 229.6764,
        "meta_mean_anomaly": 129.4032,
        "meta_ephemeris_type": 0,
        "meta_classification_type": "U",
        "meta_norad_cat_id": 41019,
        "meta_element_set_no": 999,
        "meta_rev_at_epoch": 7389,
        "meta_bstar": 0,
        "meta_mean_motion_dot": -6.5e-07,
        "meta_mean_motion_ddot": 0,
        "tle_line1": "1 41019U 15062A   25336.83842925 -.00000065  00000+0  00000+0 0  9999",
        "tle_line2": "2 41019  56.8251  38.3854 0110543 229.6764 129.4032  2.00566746 73899"
      },
      "geometry": {
        "type": "Point",
        "coordinates": [
          -11.520581088000561,
          -49.47460580869503
        ]
      }
    },
    {
      "type": "Feature",
      "properties": {
        "norad_id": 41028,
        "name": "GSAT-15 (GAGAN/PRN 139)",
        "group": "gnss",
        "lat": 0.017127840730399267,
        "lon": 74.44753613909562,
        "alt_km": 35798.07284085019,
        "timestamp": "2025-12-04T17:48:40.409127+00:00",
        "meta_object_name": "GSAT-15 (GAGAN/PRN 139)",
        "meta_object_id": "2015-065A",
        "meta_epoch": "2025-12-04T03:02:38.529312",
        "meta_mean_motion": 1.00271785,
        "meta_eccentricity": 0.0003003,
        "meta_inclination": 0.0341,
        "meta_ra_of_asc_node": 93.2741,
        "meta_arg_of_pericenter": 140.7067,
        "meta_mean_anomaly": 338.3847,
        "meta_ephemeris_type": 0,
        "meta_classification_type": "U",
        "meta_norad_cat_id": 41028,
        "meta_element_set_no": 999,
        "meta_rev_at_epoch": 3684,
        "meta_bstar": 0,
        "meta_mean_motion_dot": -2.42e-06,
        "meta_mean_motion_ddot": 0,
        "tle_line1": "1 41028U 15065A   25338.12683483 -.00000242  00000+0  00000+0 0  9995",
        "tle_line2": "2 41028   0.0341  93.2741 0003003 140.7067 338.3847  1.00271785 36840"
      },
      "geometry": {
        "type": "Point",
        "coordinates": [
          74.44753613909562,
          0.017127840730399267
        ]
      }
    },
    {
      "type": "Feature",
      "properties": {
        "norad_id": 41174,
        "name": "GSAT0209 (GALILEO 12)",
        "group": "gnss",
        "lat": -55.30110659013782,
        "lon": 26.562093310932628,
        "alt_km": 23227.065549469564,
        "timestamp": "2025-12-04T17:48:40.409174+00:00",
        "meta_object_name": "GSAT0209 (GALILEO 12)",
        "meta_object_id": "2015-079A",
        "meta_epoch": "2025-12-01T22:43:10.411392",
        "meta_mean_motion": 1.70474306,
        "meta_eccentricity": 0.0002352,
        "meta_inclination": 55.7062,
        "meta_ra_of_asc_node": 106.6773,
        "meta_arg_of_pericenter": 357.4206,
        "meta_mean_anomaly": 2.5431,
        "meta_ephemeris_type": 0,
        "meta_classification_type": "U",
        "meta_norad_cat_id": 41174,
        "meta_element_set_no": 999,
        "meta_rev_at_epoch": 6141,
        "meta_bstar": 0,
        "meta_mean_motion_dot": 3.5e-07,
        "meta_mean_motion_ddot": 0,
        "tle_line1": "1 41174U 15079A   25335.94664828  .00000035  00000+0  00000+0 0  9990",
        "tle_line2": "2 41174  55.7062 106.6773 0002352 357.4206   2.5431  1.70474306 61412"
      },
      "geometry": {
        "type": "Point",
        "coordinates": [
          26.562093310932628,
          -55.30110659013782
        ]
      }
    },
    {
      "type": "Feature",
      "properties": {
        "norad_id": 41175,
        "name": "GSAT0208 (GALILEO 11)",
        "group": "gnss",
        "lat": 31.615397328538133,
        "lon": -98.24312938476314,
        "alt_km": 23222.03022471956,
        "timestamp": "2025-12-04T17:48:40.409195+00:00",
        "meta_object_name": "GSAT0208 (GALILEO 11)",
        "meta_object_id": "2015-079B",
        "meta_epoch": "2025-12-03T08:09:32.138784",
        "meta_mean_motion": 1.70474152,
        "meta_eccentricity": 0.00019072,
        "meta_inclination": 55.7055,
        "meta_ra_of_asc_node": 106.6362,
        "meta_arg_of_pericenter": 9.6551,
        "meta_mean_anomaly": 350.3047,
        "meta_ephemeris_type": 0,
        "meta_classification_type": "U",
        "meta_norad_cat_id": 41175,
        "meta_element_set_no": 999,
        "meta_rev_at_epoch": 6185,
        "meta_bstar": 0,
        "meta_mean_motion_dot": 2.2e-07,
        "meta_mean_motion_ddot": 0,
        "tle_line1": "1 41175U 15079B   25337.33995531  .00000022  00000+0  00000+0 0  9990",
        "tle_line2": "2 41175  55.7055 106.6362 0001907   9.6551 350.3047  1.70474152 61857"
      },
      "geometry": {
        "type": "Point",
        "coordinates": [
          -98.24312938476314,
          31.615397328538133
        ]
      }
    },
    {
      "type": "Feature",
      "properties": {
        "norad_id": 41241,
        "name": "IRNSS-1E",
        "group": "gnss",
        "lat": 15.762552670508468,
        "lon": 88.49156739349029,
        "alt_km": 35868.07309529363,
        "timestamp": "2025-12-04T17:48:40.409208+00:00",
        "meta_object_name": "IRNSS-1E",
        "meta_object_id": "2016-003A",
        "meta_epoch": "2025-12-03T17:21:12.375360",
        "meta_mean_motion": 1.00277647,
        "meta_eccentricity": 0.00219003,
        "meta_inclination": 32.8059,
        "meta_ra_of_asc_node": 62.5847,
        "meta_arg_of_pericenter": 186.7982,
        "meta_mean_anomaly": 195.4387,
        "meta_ephemeris_type": 0,
        "meta_classification_type": "U",
        "meta_norad_cat_id": 41241,
        "meta_element_set_no": 999,
        "meta_rev_at_epoch": 3612,
        "meta_bstar": 0,
        "meta_mean_motion_dot": -3.08e-06,
        "meta_mean_motion_ddot": 0,
        "tle_line1": "1 41241U 16003A   25337.72305990 -.00000308  00000+0  00000+0 0  9997",
        "tle_line2": "2 41241  32.8059  62.5847 0021900 186.7982 195.4387  1.00277647 36129"
      },
      "geometry": {
        "type": "Point",
        "coordinates": [
          88.49156739349029,
          15.762552670508468
        ]
      }
    },
    {
      "type": "Feature",
      "properties": {
        "norad_id": 41328,
        "name": "GPS BIIF-12 (PRN 32)",
        "group": "gnss",
        "lat": -41.81680954898772,
        "lon": -44.74651087392169,
        "alt_km": 19947.17238408693,
        "timestamp": "2025-12-04T17:48:40.409220+00:00",
        "meta_object_name": "GPS BIIF-12 (PRN 32)",
        "meta_object_id": "2016-007A",
        "meta_epoch": "2025-12-03T22:01:44.177952",
        "meta_mean_motion": 2.00561076,
        "meta_eccentricity": 0.00917388,
        "meta_inclination": 55.4011,
        "meta_ra_of_asc_node": 97.2072,
        "meta_arg_of_pericenter": 243.359,
        "meta_mean_anomaly": 115.6713,
        "meta_ephemeris_type": 0,
        "meta_classification_type": "U",
        "meta_norad_cat_id": 41328,
        "meta_element_set_no": 999,
        "meta_rev_at_epoch": 7192,
        "meta_bstar": 0,
        "meta_mean_motion_dot": -7e-08,
        "meta_mean_motion_ddot": 0,
        "tle_line1": "1 41328U 16007A   25337.91787243 -.00000007  00000+0  00000+0 0  9999",
        "tle_line2": "2 41328  55.4011  97.2072 0091738 243.3590 115.6713  2.00561076 71927"
      },
      "geometry": {
        "type": "Point",
        "coordinates": [
          -44.74651087392169,
          -41.81680954898772
        ]
      }
    },
    {
      "type": "Feature",
      "properties": {
        "norad_id": 41330,
        "name": "COSMOS 2514 (751)",
        "group": "gnss",
        "lat": 24.062821773842813,
        "lon": 127.71674667256407,
        "alt_km": 19114.63958172656,
        "timestamp": "2025-12-04T17:48:40.409231+00:00",
        "meta_object_name": "COSMOS 2514 (751)",
        "meta_object_id": "2016-008A",
        "meta_epoch": "2025-12-03T14:29:09.873600",
        "meta_mean_motion": 2.1310246,
        "meta_eccentricity": 0.00124497,
        "meta_inclination": 65.139,
        "meta_ra_of_asc_node": 319.717,
        "meta_arg_of_pericenter": 219.8924,
        "meta_mean_anomaly": 140.017,
        "meta_ephemeris_type": 0,
        "meta_classification_type": "U",
        "meta_norad_cat_id": 41330,
        "meta_element_set_no": 999,
        "meta_rev_at_epoch": 7645,
        "meta_bstar": 0,
        "meta_mean_motion_dot": -4.2e-07,
        "meta_mean_motion_ddot": 0,
        "tle_line1": "1 41330U 16008A   25337.60358650 -.00000042  00000+0  00000+0 0  9994",
        "tle_line2": "2 41330  65.1390 319.7170 0012449 219.8924 140.0170  2.13102460 76454"
      },
      "geometry": {
        "type": "Point",
        "coordinates": [
          127.71674667256407,
          24.062821773842813
        ]
      }
    }
  ]
}